[{"OBJECT_NAME":"ONEWEB-0293","OBJECT_ID":"2021-075H","EPOCH":"2026-05-08T04:05:07.467648","MEAN_MOTION":13.17648524,"ECCENTRICITY":0.0001663,"INCLINATION":87.9173,"RA_OF_ASC_NODE":13.8197,"ARG_OF_PERICENTER":79.9086,"MEAN_ANOMALY":280.2233,"EPHEMERIS_TYPE":0,"CLASSIFICATION_TYPE":"U","NORAD_CAT_ID":49082,"ELEMENT_SET_NO":999,"REV_AT_EPOCH":22836,"BSTAR":1.8169e-05,"MEAN_MOTION_DOT":2e-07,"MEAN_MOTION_DDOT":0.0},{"OBJECT_NAME":"ONEWEB-0294","OBJECT_ID":"2021-075J","EPOCH":"2026-05-08T03:41:02.094144","MEAN_MOTION":13.1244572,"ECCENTRICITY":0.000145,"INCLINATION":87.8981,"RA_OF_ASC_NODE":358.6169,"ARG_OF_PERICENTER":76.3887,"MEAN_ANOMALY":283.7403,"EPHEMERIS_TYPE":0,"CLASSIFICATION_TYPE":"U","NORAD_CAT_ID":49083,"ELEMENT_SET_NO":999,"REV_AT_EPOCH":22932,"BSTAR":0.00061304,"MEAN_MOTION_DOT":2.33e-06,"MEAN_MOTION_DDOT":0.0},{"OBJECT_NAME":"ONEWEB-0295","OBJECT_ID":"2021-075K","EPOCH":"2026-05-08T05:53:15.013824","MEAN_MOTION":13.17648942,"ECCENTRICITY":0.0001653,"INCLINATION":87.9174,"RA_OF_ASC_NODE":13.809,"ARG_OF_PERICENTER":91.7753,"MEAN_ANOMALY":268.3568,"EPHEMERIS_TYPE":0,"CLASSIFICATION_TYPE":"U","NORAD_CAT_ID":49084,"ELEMENT_SET_NO":999,"REV_AT_EPOCH":22833,"BSTAR":-0.00058032,"MEAN_MOTION_DOT":-2.12e-06,"MEAN_MOTION_DDOT":0.0},{"OBJECT_NAME":"ONEWEB-0296","OBJECT_ID":"2021-075L","EPOCH":"2026-05-08T03:11:45.017952","MEAN_MOTION":13.12445182,"ECCENTRICITY":0.0001476,"INCLINATION":87.8989,"RA_OF_ASC_NODE":358.6257,"ARG_OF_PERICENTER":92.7199,"MEAN_ANOMALY":267.4099,"EPHEMERIS_TYPE":0,"CLASSIFICATION_TYPE":"U","NORAD_CAT_ID":49085,"ELEMENT_SET_NO":999,"REV_AT_EPOCH":22932,"BSTAR":-0.001103,"MEAN_MOTION_DOT":-3.84e-06,"MEAN_MOTION_DDOT":0.0},{"OBJECT_NAME":"ONEWEB-0297","OBJECT_ID":"2021-075M","EPOCH":"2026-05-08T03:55:39.996768","MEAN_MOTION":13.12443831,"ECCENTRICITY":0.0001911,"INCLINATION":87.8974,"RA_OF_ASC_NODE":358.6362,"ARG_OF_PERICENTER":72.0963,"MEAN_ANOMALY":288.0374,"EPHEMERIS_TYPE":0,"CLASSIFICATION_TYPE":"U","NORAD_CAT_ID":49086,"ELEMENT_SET_NO":999,"REV_AT_EPOCH":22993,"BSTAR":0.0018492,"MEAN_MOTION_DOT":6.78e-06,"MEAN_MOTION_DDOT":0.0},{"OBJECT_NAME":"ONEWEB-0298","OBJECT_ID":"2021-075N","EPOCH":"2026-05-08T05:59:32.134272","MEAN_MOTION":13.17648394,"ECCENTRICITY":0.0002005,"INCLINATION":87.9177,"RA_OF_ASC_NODE":13.8052,"ARG_OF_PERICENTER":84.584,"MEAN_ANOMALY":275.5521,"EPHEMERIS_TYPE":0,"CLASSIFICATION_TYPE":"U","NORAD_CAT_ID":49087,"ELEMENT_SET_NO":999,"REV_AT_EPOCH":22836,"BSTAR":4.4589e-05,"MEAN_MOTION_DOT":3e-07,"MEAN_MOTION_DDOT":0.0},{"OBJECT_NAME":"ONEWEB-0299","OBJECT_ID":"2021-075P","EPOCH":"2026-05-08T04:12:25.464672","MEAN_MOTION":13.1764935,"ECCENTRICITY":0.0001806,"INCLINATION":87.9183,"RA_OF_ASC_NODE":13.7971,"ARG_OF_PERICENTER":87.0311,"MEAN_ANOMALY":273.1027,"EPHEMERIS_TYPE":0,"CLASSIFICATION_TYPE":"U","NORAD_CAT_ID":49088,"ELEMENT_SET_NO":999,"REV_AT_EPOCH":22833,"BSTAR":-6.5293e-06,"MEAN_MOTION_DOT":1e-07,"MEAN_MOTION_DDOT":0.0},{"OBJECT_NAME":"ONEWEB-0300","OBJECT_ID":"2021-075Q","EPOCH":"2026-05-08T03:44:42.244800","MEAN_MOTION":13.12443045,"ECCENTRICITY":0.0002153,"INCLINATION":87.8981,"RA_OF_ASC_NODE":358.6135,"ARG_OF_PERICENTER":86.1855,"MEAN_ANOMALY":273.952,"EPHEMERIS_TYPE":0,"CLASSIFICATION_TYPE":"U","NORAD_CAT_ID":49089,"ELEMENT_SET_NO":999,"REV_AT_EPOCH":22995,"BSTAR":0.00093131,"MEAN_MOTION_DOT":3.48e-06,"MEAN_MOTION_DDOT":0.0},{"OBJECT_NAME":"ONEWEB-0301","OBJECT_ID":"2021-075R","EPOCH":"2026-05-08T03:21:31.359456","MEAN_MOTION":13.12443202,"ECCENTRICITY":0.0002154,"INCLINATION":87.8981,"RA_OF_ASC_NODE":358.6157,"ARG_OF_PERICENTER":82.3821,"MEAN_ANOMALY":277.7553,"EPHEMERIS_TYPE":0,"CLASSIFICATION_TYPE":"U","NORAD_CAT_ID":49090,"ELEMENT_SET_NO":999,"REV_AT_EPOCH":22931,"BSTAR":-0.00040709000000000003,"MEAN_MOTION_DOT":-1.34e-06,"MEAN_MOTION_DDOT":0.0},{"OBJECT_NAME":"ONEWEB-0302","OBJECT_ID":"2021-075S","EPOCH":"2026-05-08T03:01:59.713248","MEAN_MOTION":13.12444007,"ECCENTRICITY":0.0001432,"INCLINATION":87.8983,"RA_OF_ASC_NODE":358.6288,"ARG_OF_PERICENTER":81.3821,"MEAN_ANOMALY":278.747,"EPHEMERIS_TYPE":0,"CLASSIFICATION_TYPE":"U","NORAD_CAT_ID":49091,"ELEMENT_SET_NO":999,"REV_AT_EPOCH":22929,"BSTAR":-0.001031,"MEAN_MOTION_DOT":-3.58e-06,"MEAN_MOTION_DDOT":0.0},{"OBJECT_NAME":"ONEWEB-0304","OBJECT_ID":"2021-075T","EPOCH":"2026-05-08T05:25:19.924320","MEAN_MOTION":13.17649777,"ECCENTRICITY":0.0001746,"INCLINATION":87.9169,"RA_OF_ASC_NODE":13.8137,"ARG_OF_PERICENTER":85.7378,"MEAN_ANOMALY":274.3953,"EPHEMERIS_TYPE":0,"CLASSIFICATION_TYPE":"U","NORAD_CAT_ID":49092,"ELEMENT_SET_NO":999,"REV_AT_EPOCH":22831,"BSTAR":0.00013542000000000003,"MEAN_MOTION_DOT":6.5e-07,"MEAN_MOTION_DDOT":0.0},{"OBJECT_NAME":"ONEWEB-0305","OBJECT_ID":"2021-075U","EPOCH":"2026-05-08T05:15:36.181728","MEAN_MOTION":13.17650054,"ECCENTRICITY":0.000178,"INCLINATION":87.9175,"RA_OF_ASC_NODE":13.7963,"ARG_OF_PERICENTER":95.0612,"MEAN_ANOMALY":265.0723,"EPHEMERIS_TYPE":0,"CLASSIFICATION_TYPE":"U","NORAD_CAT_ID":49093,"ELEMENT_SET_NO":999,"REV_AT_EPOCH":22834,"BSTAR":-2.722e-05,"MEAN_MOTION_DOT":2e-08,"MEAN_MOTION_DDOT":0.0},{"OBJECT_NAME":"ONEWEB-0308","OBJECT_ID":"2021-075V","EPOCH":"2026-05-08T04:42:00.924192","MEAN_MOTION":13.12443279,"ECCENTRICITY":0.000177,"INCLINATION":87.8981,"RA_OF_ASC_NODE":358.6078,"ARG_OF_PERICENTER":82.337,"MEAN_ANOMALY":277.796,"EPHEMERIS_TYPE":0,"CLASSIFICATION_TYPE":"U","NORAD_CAT_ID":49094,"ELEMENT_SET_NO":999,"REV_AT_EPOCH":22931,"BSTAR":-0.00088573,"MEAN_MOTION_DOT":-3.06e-06,"MEAN_MOTION_DDOT":0.0},{"OBJECT_NAME":"ONEWEB-0309","OBJECT_ID":"2021-075W","EPOCH":"2026-05-08T05:20:27.128544","MEAN_MOTION":13.17649312,"ECCENTRICITY":0.0001372,"INCLINATION":87.917,"RA_OF_ASC_NODE":13.8074,"ARG_OF_PERICENTER":79.2339,"MEAN_ANOMALY":280.8947,"EPHEMERIS_TYPE":0,"CLASSIFICATION_TYPE":"U","NORAD_CAT_ID":49095,"ELEMENT_SET_NO":999,"REV_AT_EPOCH":22831,"BSTAR":9.042e-05,"MEAN_MOTION_DOT":4.8e-07,"MEAN_MOTION_DDOT":0.0},{"OBJECT_NAME":"ONEWEB-0310","OBJECT_ID":"2021-075X","EPOCH":"2026-05-08T03:14:10.519008","MEAN_MOTION":13.12446296,"ECCENTRICITY":0.0001745,"INCLINATION":87.8976,"RA_OF_ASC_NODE":358.645,"ARG_OF_PERICENTER":82.1241,"MEAN_ANOMALY":278.0085,"EPHEMERIS_TYPE":0,"CLASSIFICATION_TYPE":"U","NORAD_CAT_ID":49096,"ELEMENT_SET_NO":999,"REV_AT_EPOCH":22993,"BSTAR":-0.00095936,"MEAN_MOTION_DOT":-3.32e-06,"MEAN_MOTION_DDOT":0.0},{"OBJECT_NAME":"ONEWEB-0311","OBJECT_ID":"2021-075Y","EPOCH":"2026-05-08T05:30:11.146752","MEAN_MOTION":13.17649347,"ECCENTRICITY":0.0001914,"INCLINATION":87.9181,"RA_OF_ASC_NODE":13.8043,"ARG_OF_PERICENTER":95.3861,"MEAN_ANOMALY":264.7489,"EPHEMERIS_TYPE":0,"CLASSIFICATION_TYPE":"U","NORAD_CAT_ID":49097,"ELEMENT_SET_NO":999,"REV_AT_EPOCH":22836,"BSTAR":-0.00021448000000000002,"MEAN_MOTION_DOT":-7e-07,"MEAN_MOTION_DDOT":0.0}]