ONEWEB-0293             
1 49082U 21075H   26128.17022532  .00000020  00000+0  18169-4 0  9999
2 49082  87.9173  13.8197 0001663  79.9086 280.2233 13.17648524228366
ONEWEB-0294             
1 49083U 21075J   26128.15349646  .00000233  00000+0  61304-3 0  9990
2 49083  87.8981 358.6169 0001450  76.3887 283.7403 13.12445720229328
ONEWEB-0295             
1 49084U 21075K   26128.24531266 -.00000212  00000+0 -58032-3 0  9995
2 49084  87.9174  13.8090 0001653  91.7753 268.3568 13.17648942228332
ONEWEB-0296             
1 49085U 21075L   26128.13315993 -.00000384  00000+0 -11030-2 0  9997
2 49085  87.8989 358.6257 0001476  92.7199 267.4099 13.12445182229324
ONEWEB-0297             
1 49086U 21075M   26128.16365737  .00000678  00000+0  18492-2 0  9995
2 49086  87.8974 358.6362 0001911  72.0963 288.0374 13.12443831229931
ONEWEB-0298             
1 49087U 21075N   26128.24967748  .00000030  00000+0  44589-4 0  9995
2 49087  87.9177  13.8052 0002005  84.5840 275.5521 13.17648394228368
ONEWEB-0299             
1 49088U 21075P   26128.17529473  .00000010  00000+0 -65293-5 0  9992
2 49088  87.9183  13.7971 0001806  87.0311 273.1027 13.17649350228339
ONEWEB-0300             
1 49089U 21075Q   26128.15604450  .00000348  00000+0  93131-3 0  9993
2 49089  87.8981 358.6135 0002153  86.1855 273.9520 13.12443045229950
ONEWEB-0301             
1 49090U 21075R   26128.13994629 -.00000134  00000+0 -40709-3 0  9991
2 49090  87.8981 358.6157 0002154  82.3821 277.7553 13.12443202229311
ONEWEB-0302             
1 49091U 21075S   26128.12638557 -.00000358  00000+0 -10310-2 0  9998
2 49091  87.8983 358.6288 0001432  81.3821 278.7470 13.12444007229296
ONEWEB-0304             
1 49092U 21075T   26128.22592505  .00000065  00000+0  13542-3 0  9996
2 49092  87.9169  13.8137 0001746  85.7378 274.3953 13.17649777228316
ONEWEB-0305             
1 49093U 21075U   26128.21916877  .00000002  00000+0 -27220-4 0  9999
2 49093  87.9175  13.7963 0001780  95.0612 265.0723 13.17650054228348
ONEWEB-0308             
1 49094U 21075V   26128.19584403 -.00000306  00000+0 -88573-3 0  9998
2 49094  87.8981 358.6078 0001770  82.3370 277.7960 13.12443279229315
ONEWEB-0309             
1 49095U 21075W   26128.22253621  .00000048  00000+0  90420-4 0  9994
2 49095  87.9170  13.8074 0001372  79.2339 280.8947 13.17649312228311
ONEWEB-0310             
1 49096U 21075X   26128.13484397 -.00000332  00000+0 -95936-3 0  9995
2 49096  87.8976 358.6450 0001745  82.1241 278.0085 13.12446296229934
ONEWEB-0311             
1 49097U 21075Y   26128.22929568 -.00000070  00000+0 -21448-3 0  9996
2 49097  87.9181  13.8043 0001914  95.3861 264.7489 13.17649347228367
